{
    "links": {
        "self": "http://www.neowsapp.com/rest/v1/neo/3836710?api_key=iIulBulltgU6a56xZRHN4H3l9WmuAYTsLGpBGhQ2"
    },
    "id": "3836710",
    "neo_reference_id": "3836710",
    "name": "(2018 XF)",
    "designation": "2018 XF",
    "nasa_jpl_url": "http://ssd.jpl.nasa.gov/sbdb.cgi?sstr=3836710",
    "absolute_magnitude_h": 25.7,
    "estimated_diameter": {
        "kilometers": {
            "estimated_diameter_min": 0.0192555078,
            "estimated_diameter_max": 0.0430566244
        },
        "meters": {
            "estimated_diameter_min": 19.2555078188,
            "estimated_diameter_max": 43.0566244241
        },
        "miles": {
            "estimated_diameter_min": 0.0119648141,
            "estimated_diameter_max": 0.0267541378
        },
        "feet": {
            "estimated_diameter_min": 63.1742402722,
            "estimated_diameter_max": 141.2618956756
        }
    },
    "is_potentially_hazardous_asteroid": false,
    "close_approach_data": [
        {
            "close_approach_date": "1920-10-27",
            "close_approach_date_full": "1920-Oct-27 04:36",
            "epoch_date_close_approach": -1551986640000,
            "relative_velocity": {
                "kilometers_per_second": "17.1897862779",
                "kilometers_per_hour": "61883.2306005106",
                "miles_per_hour": "38451.8329250784"
            },
            "miss_distance": {
                "astronomical": "0.4603671133",
                "lunar": "179.0828070737",
                "kilometers": "68869939.567728671",
                "miles": "42793796.0726948198"
            },
            "orbiting_body": "Earth"
        },
        {
            "close_approach_date": "1923-12-16",
            "close_approach_date_full": "1923-Dec-16 22:55",
            "epoch_date_close_approach": -1452992700000,
            "relative_velocity": {
                "kilometers_per_second": "11.7211202079",
                "kilometers_per_hour": "42196.0327484191",
                "miles_per_hour": "26218.9737930385"
            },
            "miss_distance": {
                "astronomical": "0.2005872729",
                "lunar": "78.0284491581",
                "kilometers": "30007428.774948723",
                "miles": "18645751.6257614574"
            },
            "orbiting_body": "Earth"
        },
        {
            "close_approach_date": "1951-12-03",
            "close_approach_date_full": "1951-Dec-03 11:13",
            "epoch_date_close_approach": -570545220000,
            "relative_velocity": {
                "kilometers_per_second": "9.7334760661",
                "kilometers_per_hour": "35040.5138380003",
                "miles_per_hour": "21772.8126122841"
            },
            "miss_distance": {
                "astronomical": "0.0234206635",
                "lunar": "9.1106381015",
                "kilometers": "3503681.373586745",
                "miles": "2177086.652697281"
            },
            "orbiting_body": "Earth"
        },
        {
            "close_approach_date": "2018-12-02",
            "close_approach_date_full": "2018-Dec-02 17:26",
            "epoch_date_close_approach": 1543771560000,
            "relative_velocity": {
                "kilometers_per_second": "9.7239457778",
                "kilometers_per_hour": "35006.2048000497",
                "miles_per_hour": "21751.494310342"
            },
            "miss_distance": {
                "astronomical": "0.0201472828",
                "lunar": "7.8372930092",
                "kilometers": "3013990.593167636",
                "miles": "1872806.9113839368"
            },
            "orbiting_body": "Earth"
        },
        {
            "close_approach_date": "2085-12-03",
            "close_approach_date_full": "2085-Dec-03 03:02",
            "epoch_date_close_approach": 3658186920000,
            "relative_velocity": {
                "kilometers_per_second": "9.7277029433",
                "kilometers_per_hour": "35019.7305959774",
                "miles_per_hour": "21759.8987139283"
            },
            "miss_distance": {
                "astronomical": "0.022361767",
                "lunar": "8.698727363",
                "kilometers": "3345272.71263629",
                "miles": "2078656.075069202"
            },
            "orbiting_body": "Earth"
        }
    ],
    "orbital_data": {
        "orbit_id": "2",
        "orbit_determination_date": "2019-03-19 06:59:07",
        "first_observation_date": "2018-12-03",
        "last_observation_date": "2018-12-05",
        "data_arc_in_days": 2,
        "observations_used": 55,
        "orbit_uncertainty": "7",
        "minimum_orbit_intersection": ".0205226",
        "jupiter_tisserand_invariant": "4.814",
        "epoch_osculation": "2459000.5",
        "eccentricity": ".2514084840902406",
        "semi_major_axis": "1.343823489074135",
        "inclination": "16.75126733779215",
        "ascending_node_longitude": "250.0369696476773",
        "orbital_period": "568.9993481125701",
        "perihelion_distance": "1.005974862801148",
        "perihelion_argument": "181.0255352616315",
        "aphelion_distance": "1.681672115347121",
        "perihelion_time": "2459025.220773417566",
        "mean_anomaly": "344.3594224495259",
        "mean_motion": ".6326896527986497",
        "equinox": "J2000",
        "orbit_class": {
            "orbit_class_type": "APO",
            "orbit_class_description": "Near-Earth asteroid orbits which cross the Earth’s orbit similar to that of 1862 Apollo",
            "orbit_class_range": "a (semi-major axis) > 1.0 AU; q (perihelion) < 1.017 AU"
        }
    },
    "is_sentry_object": false
}